{
  "type": "FeatureCollection",
  "features": [
    {
      "type": "Feature",
      "properties": {
        "norad_id": 28051,
        "name": "IRS-P6 (RESOURCESAT-1)",
        "group": "resource",
        "lat": -51.18224073670627,
        "lon": -152.22866848874358,
        "alt_km": 774.4960681379089,
        "timestamp": "2025-12-24T05:51:19.262111+00:00",
        "meta_object_name": "IRS-P6 (RESOURCESAT-1)",
        "meta_object_id": "2003-046A",
        "meta_epoch": "2025-12-24T00:17:46.284000",
        "meta_mean_motion": 14.36079228,
        "meta_eccentricity": 0.00648233,
        "meta_inclination": 98.216,
        "meta_ra_of_asc_node": 37.896,
        "meta_arg_of_pericenter": 147.0019,
        "meta_mean_anomaly": 327.2918,
        "meta_ephemeris_type": 0,
        "meta_classification_type": "U",
        "meta_norad_cat_id": 28051,
        "meta_element_set_no": 999,
        "meta_rev_at_epoch": 15538,
        "meta_bstar": 3.6632534e-05,
        "meta_mean_motion_dot": 6.9e-07,
        "meta_mean_motion_ddot": 0,
        "tle_line1": "1 28051U 03046A   25358.01234125  .00000069  00000+0  36633-4 0  9999",
        "tle_line2": "2 28051  98.2160  37.8960 0064823 147.0019 327.2918 14.36079228155388"
      },
      "geometry": {
        "type": "Point",
        "coordinates": [
          -152.22866848874358,
          -51.18224073670627
        ]
      }
    },
    {
      "type": "Feature",
      "properties": {
        "norad_id": 28220,
        "name": "SHIYAN-1 (SY-1)",
        "group": "resource",
        "lat": -41.628795808488974,
        "lon": 67.54362236153567,
        "alt_km": 484.46853243451824,
        "timestamp": "2025-12-24T05:51:19.262123+00:00",
        "meta_object_name": "SHIYAN-1 (SY-1)",
        "meta_object_id": "2004-012A",
        "meta_epoch": "2025-12-23T19:02:25.804608",
        "meta_mean_motion": 15.28418704,
        "meta_eccentricity": 0.00051392,
        "meta_inclination": 97.8916,
        "meta_ra_of_asc_node": 59.9851,
        "meta_arg_of_pericenter": 278.9303,
        "meta_mean_anomaly": 81.1353,
        "meta_ephemeris_type": 0,
        "meta_classification_type": "U",
        "meta_norad_cat_id": 28220,
        "meta_element_set_no": 999,
        "meta_rev_at_epoch": 18425,
        "meta_bstar": 0.00049913816,
        "meta_mean_motion_dot": 0.00013744,
        "meta_mean_motion_ddot": 0,
        "tle_line1": "1 28220U 04012A   25357.79335422  .00013744  00000+0  49914-3 0  9996",
        "tle_line2": "2 28220  97.8916  59.9851 0005139 278.9303  81.1353 15.28418704184254"
      },
      "geometry": {
        "type": "Point",
        "coordinates": [
          67.54362236153567,
          -41.628795808488974
        ]
      }
    },
    {
      "type": "Feature",
      "properties": {
        "norad_id": 28376,
        "name": "AURA",
        "group": "resource",
        "lat": 81.20695723750788,
        "lon": -122.56945868886136,
        "alt_km": 681.5974747247246,
        "timestamp": "2025-12-24T05:51:19.262134+00:00",
        "meta_object_name": "AURA",
        "meta_object_id": "2004-026A",
        "meta_epoch": "2025-12-23T21:14:21.844320",
        "meta_mean_motion": 14.60971138,
        "meta_eccentricity": 0.00014042,
        "meta_inclination": 98.3201,
        "meta_ra_of_asc_node": 308.1643,
        "meta_arg_of_pericenter": 91.4562,
        "meta_mean_anomaly": 268.6799,
        "meta_ephemeris_type": 0,
        "meta_classification_type": "U",
        "meta_norad_cat_id": 28376,
        "meta_element_set_no": 999,
        "meta_rev_at_epoch": 14061,
        "meta_bstar": 0.00022607343,
        "meta_mean_motion_dot": 1.06e-05,
        "meta_mean_motion_ddot": 0,
        "tle_line1": "1 28376U 04026A   25357.88497505  .00001060  00000+0  22607-3 0  9992",
        "tle_line2": "2 28376  98.3201 308.1643 0001404  91.4562 268.6799 14.60971138140611"
      },
      "geometry": {
        "type": "Point",
        "coordinates": [
          -122.56945868886136,
          81.20695723750788
        ]
      }
    },
    {
      "type": "Feature",
      "properties": {
        "norad_id": 28649,
        "name": "IRS-P5 (CARTOSAT-1)",
        "group": "resource",
        "lat": 75.77824627227504,
        "lon": -7.399803487465254,
        "alt_km": 589.0198193202605,
        "timestamp": "2025-12-24T05:51:19.262144+00:00",
        "meta_object_name": "IRS-P5 (CARTOSAT-1)",
        "meta_object_id": "2005-017A",
        "meta_epoch": "2025-12-23T23:03:43.412832",
        "meta_mean_motion": 14.9044043,
        "meta_eccentricity": 5.641e-05,
        "meta_inclination": 97.5482,
        "meta_ra_of_asc_node": 23.8761,
        "meta_arg_of_pericenter": 59.0695,
        "meta_mean_anomaly": 301.0579,
        "meta_ephemeris_type": 0,
        "meta_classification_type": "U",
        "meta_norad_cat_id": 28649,
        "meta_element_set_no": 999,
        "meta_rev_at_epoch": 11771,
        "meta_bstar": 0.00016789118,
        "meta_mean_motion_dot": 1.584e-05,
        "meta_mean_motion_ddot": 0,
        "tle_line1": "1 28649U 05017A   25357.96091913  .00001584  00000+0  16789-3 0  9993",
        "tle_line2": "2 28649  97.5482  23.8761 0000564  59.0695 301.0579 14.90440430117713"
      },
      "geometry": {
        "type": "Point",
        "coordinates": [
          -7.399803487465254,
          75.77824627227504
        ]
      }
    },
    {
      "type": "Feature",
      "properties": {
        "norad_id": 28893,
        "name": "SINAH 1",
        "group": "resource",
        "lat": 56.79099461164455,
        "lon": 114.0092973226499,
        "alt_km": 667.1515048915908,
        "timestamp": "2025-12-24T05:51:19.262155+00:00",
        "meta_object_name": "SINAH 1",
        "meta_object_id": "2005-043D",
        "meta_epoch": "2025-12-23T23:01:53.175072",
        "meta_mean_motion": 14.63973727,
        "meta_eccentricity": 0.0015713,
        "meta_inclination": 98.2609,
        "meta_ra_of_asc_node": 126.5473,
        "meta_arg_of_pericenter": 104.2831,
        "meta_mean_anomaly": 256.0117,
        "meta_ephemeris_type": 0,
        "meta_classification_type": "U",
        "meta_norad_cat_id": 28893,
        "meta_element_set_no": 999,
        "meta_rev_at_epoch": 7488,
        "meta_bstar": 9.0392145e-05,
        "meta_mean_motion_dot": 4.25e-06,
        "meta_mean_motion_ddot": 0,
        "tle_line1": "1 28893U 05043D   25357.95964323  .00000425  00000+0  90392-4 0  9992",
        "tle_line2": "2 28893  98.2609 126.5473 0015713 104.2831 256.0117 14.63973727 74888"
      },
      "geometry": {
        "type": "Point",
        "coordinates": [
          114.0092973226499,
          56.79099461164455
        ]
      }
    },
    {
      "type": "Feature",
      "properties": {
        "norad_id": 29079,
        "name": "EROS B",
        "group": "resource",
        "lat": 45.15288641327163,
        "lon": -57.15153244301328,
        "alt_km": 352.3037326694048,
        "timestamp": "2025-12-24T05:51:19.262166+00:00",
        "meta_object_name": "EROS B",
        "meta_object_id": "2006-014A",
        "meta_epoch": "2025-12-23T23:10:28.226208",
        "meta_mean_motion": 15.71861108,
        "meta_eccentricity": 0.00041323,
        "meta_inclination": 97.3459,
        "meta_ra_of_asc_node": 115.103,
        "meta_arg_of_pericenter": 310.9038,
        "meta_mean_anomaly": 49.1867,
        "meta_ephemeris_type": 0,
        "meta_classification_type": "U",
        "meta_norad_cat_id": 29079,
        "meta_element_set_no": 999,
        "meta_rev_at_epoch": 9256,
        "meta_bstar": 0.001389713,
        "meta_mean_motion_dot": 0.00183766,
        "meta_mean_motion_ddot": 0,
        "tle_line1": "1 29079U 06014A   25357.96560447  .00183766  00000+0  13897-2 0  9991",
        "tle_line2": "2 29079  97.3459 115.1030 0004132 310.9038  49.1867 15.71861108 92566"
      },
      "geometry": {
        "type": "Point",
        "coordinates": [
          -57.15153244301328,
          45.15288641327163
        ]
      }
    },
    {
      "type": "Feature",
      "properties": {
        "norad_id": 29228,
        "name": "RESURS-DK 1",
        "group": "resource",
        "lat": -15.690973362238042,
        "lon": -101.99885723403429,
        "alt_km": 530.7026722348046,
        "timestamp": "2025-12-24T05:51:19.262177+00:00",
        "meta_object_name": "RESURS-DK 1",
        "meta_object_id": "2006-021A",
        "meta_epoch": "2025-12-23T14:42:01.773792",
        "meta_mean_motion": 15.122178,
        "meta_eccentricity": 0.00068724,
        "meta_inclination": 69.9337,
        "meta_ra_of_asc_node": 73.7385,
        "meta_arg_of_pericenter": 249.2294,
        "meta_mean_anomaly": 110.8136,
        "meta_ephemeris_type": 0,
        "meta_classification_type": "U",
        "meta_norad_cat_id": 29228,
        "meta_element_set_no": 999,
        "meta_rev_at_epoch": 7602,
        "meta_bstar": 0.00016371419,
        "meta_mean_motion_dot": 2.729e-05,
        "meta_mean_motion_ddot": 0,
        "tle_line1": "1 29228U 06021A   25357.61252053  .00002729  00000+0  16371-3 0  9998",
        "tle_line2": "2 29228  69.9337  73.7385 0006872 249.2294 110.8136 15.12217800 76022"
      },
      "geometry": {
        "type": "Point",
        "coordinates": [
          -101.99885723403429,
          -15.690973362238042
        ]
      }
    }
  ]
}